GORIZONT 1 [-]          
1 11158U 78118A   23024.87531967 -.00000205  00000+0  00000+0 0  9994
2 11158  11.0922 196.5654 3421884 293.4737  34.1730  1.00300709110510
GORIZONT 2 [-]          
1 11440U 79062A   23025.84207744 -.00000077  00000+0  00000+0 0  9995
2 11440   8.7645 299.2678 0003082 320.5600 240.9930  1.00306675125591
GORIZONT 3 [-]          
1 11648U 79105A   23025.77504760 -.00000289  00000+0  00000+0 0  9998
2 11648   8.9277 300.7402 0012094 219.2380 339.8626  1.00330690110069
GORIZONT 4 [-]          
1 11841U 80049A   23025.75465966 -.00000021  00000+0  00000+0 0  9998
2 11841  10.0892 306.6747 0001258   1.0454 181.6371  0.98627640221307
GORIZONT 5 [-]          
1 13092U 82020A   23025.77461178 -.00000028  00000+0  00000+0 0  9999
2 13092  11.0996 312.0227 0033396 217.3538 328.3667  0.98530280109395
GORIZONT 6 [-]          
1 13624U 82103A   23026.54434352  .00000120  00000+0  00000+0 0  9994
2 13624  10.0266 312.0840 0000397 347.2874 231.7530  1.00343586108533
GORIZONT 7 [-]          
1 14160U 83066A   23025.17273785 -.00000163  00000+0  00000+0 0  9996
2 14160  11.7228 321.5924 0010049 323.6843 214.2085  0.98348711142565
GORIZONT 8 [-]          
1 14532U 83118A   23026.61486576 -.00000214  00000+0  00000+0 0  9998
2 14532  11.9026 323.4580 0029666 153.2507  14.2697  0.98271526108348
GORIZONT 9 [-]          
1 14940U 84041A   23025.89216175  .00000037  00000+0  00000+0 0  9994
2 14940  11.0924 321.4616 0004191 219.0262 326.0637  1.00234830109522
GORIZONT 10 [-]         
1 15144U 84078A   23026.63102443  .00000087  00000+0  00000+0 0  9991
2 15144  11.1916 322.4803 0000362  87.3641 132.3102  1.00271022142169
GORIZONT 11 [-]         
1 15484U 85007A   23025.71071988 -.00000325  00000+0  00000+0 0  9994
2 15484  11.3819 324.4870 0002610 150.7433  38.5265  1.00321995140214
GORIZONT 12 [-]         
1 16769U 86044A   23025.97915294  .00000124  00000+0  00000+0 0  9994
2 16769  12.0285 329.9004 0001087 266.4575 281.8017  1.00254255134848
GORIZONT 13 [-]         
1 17083U 86090A   23026.60830603 -.00000170  00000+0  00000+0 0  9998
2 17083  13.9352 337.1404 0014078 343.6097 193.4997  0.96727253106671
GORIZONT 14 [-]         
1 17969U 87040A   23025.93313162 -.00000055  00000+0  00000+0 0  9990
2 17969  12.8350 328.4783 0030499 177.9687   9.6656  0.97657881107762
GORIZONT 15 [-]         
1 19017U 88028A   23026.39349049 -.00000070  00000+0  00000+0 0  9994
2 19017  14.2418 339.9306 0036606 161.0318  42.6168  0.97827066107396
GORIZONT 16 [-]         
1 19397U 88071A   23026.63729999 -.00000368  00000+0  00000+0 0  9996
2 19397  13.0904 338.6003 0014158  63.3770  73.5836  0.99977694125860
GORIZONT 17 [-]         
1 19765U 89004A   23026.54476569 -.00000013  00000+0  00000+0 0  9991
2 19765  13.6555 341.9761 0022436 135.5918  52.7727  0.99066485123312
GORIZONT 18 [-]         
1 20107U 89052A   23025.96438532  .00000080  00000+0  00000+0 0  9992
2 20107  13.7077 343.2331 0034040 322.1277 224.8642  0.99397452122103
GORIZONT 19 [-]         
1 20263U 89081A   23026.34865740 -.00000304  00000+0  00000+0 0  9995
2 20263  13.4339 342.3987 0003427 215.3427 148.5236  1.00341830 34932
GORIZONT 20 [-]         
1 20659U 90054A   23026.38591146 -.00000175  00000+0  00000+0 0  9992
2 20659  13.8863 345.2118 0006465 170.5776 191.1251  1.00225675119280
GORIZONT 21 [-]         
1 20923U 90094A   23026.24962569 -.00000284  00000+0  00000+0 0  9997
2 20923  13.9047 345.9789 0004021 210.5862 336.9388  1.00333004118035
GORIZONT 22 [-]         
1 20953U 90102A   23025.78158500 -.00000364  00000+0  00000+0 0  9999
2 20953  13.8657 346.3555 0002715  26.0734 162.9170  1.00219806117955
GORIZONT 23 [-]         
1 21533U 91046A   23026.33492837 -.00000200  00000+0  00000+0 0  9997
2 21533  14.6526 350.5269 0004200 318.3776 241.8538  0.98908959 34444
GORIZONT 24 [-]         
1 21759U 91074A   23025.78254380 -.00000217  00000+0  00000+0 0  9993
2 21759  14.8198 352.4531 0017746 229.4655 318.5821  0.98444695112762
GORIZONT 25 [-]         
1 21922U 92017A   23025.71324767 -.00000320  00000+0  00000+0 0  9998
2 21922  14.3592 351.7554 0028658  85.2854  89.9676  0.99859003112577
GORIZONT 26 [-]         
1 22041U 92043A   23026.09354900 -.00000009  00000+0  00000+0 0  9998
2 22041  14.5421 353.7790 0030820 239.9101 315.3028  0.99243502111188
GORIZONT 27 [-]         
1 22245U 92082A   23026.11774515  .00000059  00000+0  00000+0 0  9992
2 22245  14.4578 353.3398 0012252  12.1781 178.2229  1.00191708114714
GORIZONT 28 [-]         
1 22880U 93069A   23026.44940519  .00000017  00000+0  00000+0 0  9992
2 22880  14.6227 357.2214 0033678 136.0996  38.4733  0.99648258106791
GORIZONT 29 [-]         
1 22907U 93072A   23026.32794579 -.00000296  00000+0  00000+0 0  9996
2 22907  14.5307 356.6647 0010283 348.8068 193.3346  1.00131272106777
GORIZONT 30 [-]         
1 23108U 94030A   23026.25743545 -.00000325  00000+0  00000+0 0  9997
2 23108  14.5491 357.5624 0001061 190.4009 167.4744  1.00234769105048
GORIZONT 31 [-]         
1 23775U 96005A   23026.03452101  .00000101  00000+0  00000+0 0  9993
2 23775  14.5035   3.8189 0018434 205.1994 325.0312  0.99889227 98684
GORIZONT 32 [-]         
1 23880U 96034A   23026.61229110 -.00000049  00000+0  00000+0 0  9990
2 23880  14.4569   4.3166 0008219 358.8056 155.0547  1.00218258 97636
GORIZONT 33 [-]         
1 26372U 00029A   23025.75255906 -.00000156  00000+0  00000+0 0  9993
2 26372  13.2439  15.6090 0002188  87.2931 276.1582  1.00291639 83018
